[{"OBJECT_NAME":"FOSSASAT-2E18 (TAT-A)","OBJECT_ID":"2025-009CF","EPOCH":"2026-03-09T17:01:45.499296","MEAN_MOTION":15.20457243,"ECCENTRICITY":0.00051914,"INCLINATION":97.4018,"RA_OF_ASC_NODE":148.8446,"ARG_OF_PERICENTER":339.5047,"MEAN_ANOMALY":20.598,"EPHEMERIS_TYPE":0,"CLASSIFICATION_TYPE":"U","NORAD_CAT_ID":62686,"ELEMENT_SET_NO":999,"REV_AT_EPOCH":6357,"BSTAR":0.00019425046,"MEAN_MOTION_DOT":4.172e-5,"MEAN_MOTION_DDOT":0},{"OBJECT_NAME":"FENGYUN 1C DEB","OBJECT_ID":"1999-025BYD","EPOCH":"2026-03-02T20:37:52.103712","MEAN_MOTION":15.19437968,"ECCENTRICITY":0.00147498,"INCLINATION":98.2493,"RA_OF_ASC_NODE":301.6947,"ARG_OF_PERICENTER":10.832,"MEAN_ANOMALY":349.3227,"EPHEMERIS_TYPE":0,"CLASSIFICATION_TYPE":"U","NORAD_CAT_ID":31538,"ELEMENT_SET_NO":999,"REV_AT_EPOCH":68212,"BSTAR":0.0071136993,"MEAN_MOTION_DOT":0.00154158,"MEAN_MOTION_DDOT":0}]
